start=new Date('2022-05-20T00:00:00.000Z').valueOf();
sats=[{"MEAN_ANOMALY":"338.1463","PERIOD":"91.534","MEAN_MOTION_DOT":"0.00031566","OBJECT_ID":"2022-045AG","TLE_LINE1":"1 52361U 22045AG  22139.91667824  .00031566  00000-0  22859-3 0  9990","TLE_LINE2":"2 52361  53.2142 337.1230 0001020  93.1790 338.1463 15.73188539  1309","SITE":"AFETR","NORAD_CAT_ID":"52361","EPHEMERIS_TYPE":"0","DECAY_DATE":null,"RA_OF_ASC_NODE":"337.1230","PERIAPSIS":"349.107","CLASSIFICATION_TYPE":"U","REF_FRAME":"TEME","BSTAR":"0.00022859000000","ARG_OF_PERICENTER":"93.1790","OBJECT_NAME":"STARLINK-3728","REV_AT_EPOCH":"130","MEAN_MOTION_DDOT":"0.0000000000000","OBJECT_TYPE":"PAYLOAD","COUNTRY_CODE":"US","LAUNCH_DATE":"2022-04-29","APOAPSIS":"350.479","MEAN_MOTION":"15.73188539","SEMIMAJOR_AXIS":"6727.928","MEAN_ELEMENT_THEORY":"SGP4","INCLINATION":"53.2142","EPOCH":"2022-05-19T22:00:00.999936","FILE":"3453812","ECCENTRICITY":"0.00010200","GP_ID":"203990509","TIME_SYSTEM":"UTC","CENTER_NAME":"EARTH","ELEMENT_SET_NO":"999","RCS_SIZE":"LARGE"},{"REV_AT_EPOCH":"130","OBJECT_NAME":"STARLINK-3848","BSTAR":"-0.00001464900000","ARG_OF_PERICENTER":"102.0025","REF_FRAME":"TEME","CLASSIFICATION_TYPE":"U","PERIAPSIS":"348.975","RA_OF_ASC_NODE":"337.1166","DECAY_DATE":null,"EPHEMERIS_TYPE":"0","SITE":"AFETR","NORAD_CAT_ID":"52362","TLE_LINE1":"1 52362U 22045AH  22139.91667824 -.00002677  00000-0 -14649-4 0  9993","TLE_LINE2":"2 52362  53.2140 337.1166 0001043 102.0025 332.2546 15.73229250  1305","OBJECT_ID":"2022-045AH","MEAN_MOTION_DOT":"-0.00002677","PERIOD":"91.531","MEAN_ANOMALY":"332.2546","RCS_SIZE":"LARGE","ELEMENT_SET_NO":"999","CENTER_NAME":"EARTH","TIME_SYSTEM":"UTC","GP_ID":"203991132","ECCENTRICITY":"0.00010430","FILE":"3453812","INCLINATION":"53.2140","EPOCH":"2022-05-19T22:00:00.999936","SEMIMAJOR_AXIS":"6727.812","MEAN_ELEMENT_THEORY":"SGP4","MEAN_MOTION":"15.73229250","LAUNCH_DATE":"2022-04-29","APOAPSIS":"350.378","COUNTRY_CODE":"US","OBJECT_TYPE":"PAYLOAD","MEAN_MOTION_DDOT":"0.0000000000000"},{"OBJECT_ID":"2022-045AJ","NORAD_CAT_ID":"52363","SITE":"AFETR","TLE_LINE2":"2 52363  53.2142 337.1215 0001046  93.5931 338.3919 15.73220616  1304","TLE_LINE1":"1 52363U 22045AJ  22139.91667824  .00011653  00000-0  87250-4 0  9994","EPHEMERIS_TYPE":"0","MEAN_ANOMALY":"338.3919","PERIOD":"91.532","MEAN_MOTION_DOT":"0.00011653","BSTAR":"0.00008725000000","ARG_OF_PERICENTER":"93.5931","OBJECT_NAME":"STARLINK-3830","REV_AT_EPOCH":"130","DECAY_DATE":null,"RA_OF_ASC_NODE":"337.1215","REF_FRAME":"TEME","PERIAPSIS":"348.998","CLASSIFICATION_TYPE":"U","LAUNCH_DATE":"2022-04-29","APOAPSIS":"350.405","MEAN_MOTION_DDOT":"0.0000000000000","OBJECT_TYPE":"PAYLOAD","COUNTRY_CODE":"US","CENTER_NAME":"EARTH","TIME_SYSTEM":"UTC","ELEMENT_SET_NO":"999","RCS_SIZE":"LARGE","MEAN_ELEMENT_THEORY":"SGP4","SEMIMAJOR_AXIS":"6727.836","MEAN_MOTION":"15.73220616","FILE":"3453812","INCLINATION":"53.2142","EPOCH":"2022-05-19T22:00:00.999936","GP_ID":"203990938","ECCENTRICITY":"0.00010460"},{"OBJECT_ID":"2022-045AK","SITE":"AFETR","NORAD_CAT_ID":"52364","TLE_LINE1":"1 52364U 22045AK  22139.91667824  .00105853  00000-0  75013-3 0  9994","TLE_LINE2":"2 52364  53.2140 337.1140 0000998  94.8489 340.6251 15.73169641  1302","EPHEMERIS_TYPE":"0","MEAN_ANOMALY":"340.6251","PERIOD":"91.535","MEAN_MOTION_DOT":"0.00105853","BSTAR":"0.00075013000000","ARG_OF_PERICENTER":"94.8489","OBJECT_NAME":"STARLINK-3820","REV_AT_EPOCH":"130","DECAY_DATE":null,"RA_OF_ASC_NODE":"337.1140","REF_FRAME":"TEME","PERIAPSIS":"349.175","CLASSIFICATION_TYPE":"U","LAUNCH_DATE":"2022-04-29","APOAPSIS":"350.518","MEAN_MOTION_DDOT":"0.0000000000000","OBJECT_TYPE":"PAYLOAD","COUNTRY_CODE":"US","CENTER_NAME":"EARTH","TIME_SYSTEM":"UTC","ELEMENT_SET_NO":"999","RCS_SIZE":"LARGE","MEAN_ELEMENT_THEORY":"SGP4","SEMIMAJOR_AXIS":"6727.982","MEAN_MOTION":"15.73169641","FILE":"3453812","INCLINATION":"53.2140","EPOCH":"2022-05-19T22:00:00.999936","GP_ID":"203990701","ECCENTRICITY":"0.00009980"},{"REV_AT_EPOCH":"575","OBJECT_NAME":"STARLINK-3874","ARG_OF_PERICENTER":"104.2282","BSTAR":"-0.00027897000000","CLASSIFICATION_TYPE":"U","PERIAPSIS":"348.955","REF_FRAME":"TEME","RA_OF_ASC_NODE":"335.4682","DECAY_DATE":null,"EPHEMERIS_TYPE":"0","TLE_LINE2":"2 52365  53.2143 335.4682 0000906 104.2282  57.7824 15.73268578  5758","TLE_LINE1":"1 52365U 22045AL  22140.25001157 -.00039700  00000-0 -27897-3 0  9991","SITE":"AFETR","NORAD_CAT_ID":"52365","OBJECT_ID":"2022-045AL","MEAN_MOTION_DOT":"-0.00039700","PERIOD":"91.529","MEAN_ANOMALY":"57.7824","RCS_SIZE":"LARGE","ELEMENT_SET_NO":"999","TIME_SYSTEM":"UTC","CENTER_NAME":"EARTH","ECCENTRICITY":"0.00009060","GP_ID":"203998398","EPOCH":"2022-05-20T06:00:00.999648","INCLINATION":"53.2143","FILE":"3454112","MEAN_MOTION":"15.73268578","MEAN_ELEMENT_THEORY":"SGP4","SEMIMAJOR_AXIS":"6727.700","LAUNCH_DATE":"2022-04-29","APOAPSIS":"350.174","COUNTRY_CODE":"US","OBJECT_TYPE":"PAYLOAD","MEAN_MOTION_DDOT":"0.0000000000000"},{"MEAN_ANOMALY":"340.9486","PERIOD":"91.531","MEAN_MOTION_DOT":"0.00000399","OBJECT_ID":"2022-045AM","SITE":"AFETR","NORAD_CAT_ID":"52366","TLE_LINE1":"1 52366U 22045AM  22139.91667824  .00000399  00000-0  72508-5 0  9993","TLE_LINE2":"2 52366  53.2139 337.1111 0001053  95.7934 340.9486 15.73230001  1300","EPHEMERIS_TYPE":"0","DECAY_DATE":null,"RA_OF_ASC_NODE":"337.1111","REF_FRAME":"TEME","PERIAPSIS":"348.966","CLASSIFICATION_TYPE":"U","ARG_OF_PERICENTER":"95.7934","BSTAR":"0.00000725080000","OBJECT_NAME":"STARLINK-3808","REV_AT_EPOCH":"130","MEAN_MOTION_DDOT":"0.0000000000000","OBJECT_TYPE":"PAYLOAD","COUNTRY_CODE":"US","LAUNCH_DATE":"2022-04-29","APOAPSIS":"350.383","MEAN_ELEMENT_THEORY":"SGP4","SEMIMAJOR_AXIS":"6727.810","MEAN_MOTION":"15.73230001","FILE":"3453812","EPOCH":"2022-05-19T22:00:00.999936","INCLINATION":"53.2139","GP_ID":"203991182","ECCENTRICITY":"0.00010530","CENTER_NAME":"EARTH","TIME_SYSTEM":"UTC","ELEMENT_SET_NO":"999","RCS_SIZE":"LARGE"},{"MEAN_ELEMENT_THEORY":"SGP4","SEMIMAJOR_AXIS":"6727.273","MEAN_MOTION":"15.73418105","FILE":"3454112","EPOCH":"2022-05-20T06:00:00.999648","INCLINATION":"53.2157","GP_ID":"203998399","ECCENTRICITY":"0.00009380","CENTER_NAME":"EARTH","TIME_SYSTEM":"UTC","ELEMENT_SET_NO":"999","RCS_SIZE":"MEDIUM","MEAN_MOTION_DDOT":"0.0000000000000","OBJECT_TYPE":"PAYLOAD","COUNTRY_CODE":"US","LAUNCH_DATE":"2022-04-29","APOAPSIS":"349.769","DECAY_DATE":null,"RA_OF_ASC_NODE":"335.4643","REF_FRAME":"TEME","CLASSIFICATION_TYPE":"U","PERIAPSIS":"348.507","BSTAR":"-0.00480240000000","ARG_OF_PERICENTER":"98.1889","OBJECT_NAME":"STARLINK-3817","REV_AT_EPOCH":"575","MEAN_ANOMALY":"65.6240","PERIOD":"91.520","MEAN_MOTION_DOT":"-0.00632083","OBJECT_ID":"2022-045AN","SITE":"AFETR","NORAD_CAT_ID":"52367","TLE_LINE1":"1 52367U 22045AN  22140.25001157 -.00632083  00000-0 -48024-2 0  9990","TLE_LINE2":"2 52367  53.2157 335.4643 0000938  98.1889  65.6240 15.73418105  5754","EPHEMERIS_TYPE":"0"},{"TIME_SYSTEM":"UTC","CENTER_NAME":"EARTH","ELEMENT_SET_NO":"999","RCS_SIZE":"LARGE","MEAN_MOTION":"15.73241676","MEAN_ELEMENT_THEORY":"SGP4","SEMIMAJOR_AXIS":"6727.776","EPOCH":"2022-05-20T06:00:00.999648","INCLINATION":"53.2139","FILE":"3454112","ECCENTRICITY":"0.00011530","GP_ID":"203998397","APOAPSIS":"350.417","LAUNCH_DATE":"2022-04-29","MEAN_MOTION_DDOT":"0.0000000000000","OBJECT_TYPE":"PAYLOAD","COUNTRY_CODE":"US","BSTAR":"-0.00040921000000","ARG_OF_PERICENTER":"101.7619","OBJECT_NAME":"STARLINK-3834","REV_AT_EPOCH":"574","DECAY_DATE":null,"RA_OF_ASC_NODE":"335.4565","CLASSIFICATION_TYPE":"U","PERIAPSIS":"348.866","REF_FRAME":"TEME","OBJECT_ID":"2022-045AP","TLE_LINE2":"2 52368  53.2139 335.4565 0001153 101.7619  65.6500 15.73241676  5745","TLE_LINE1":"1 52368U 22045AP  22140.25001157 -.00057758  00000-0 -40921-3 0  9990","NORAD_CAT_ID":"52368","SITE":"AFETR","EPHEMERIS_TYPE":"0","MEAN_ANOMALY":"65.6500","PERIOD":"91.531","MEAN_MOTION_DOT":"-0.00057758"},{"CLASSIFICATION_TYPE":"U","PERIAPSIS":"349.041","REF_FRAME":"TEME","RA_OF_ASC_NODE":"337.1131","DECAY_DATE":null,"REV_AT_EPOCH":"130","OBJECT_NAME":"STARLINK-3841","ARG_OF_PERICENTER":"97.9220","BSTAR":"0.00034351000000","MEAN_MOTION_DOT":"0.00047880","PERIOD":"91.533","MEAN_ANOMALY":"338.1346","EPHEMERIS_TYPE":"0","TLE_LINE2":"2 52369  53.2140 337.1131 0001036  97.9220 338.1346 15.73207758  1307","TLE_LINE1":"1 52369U 22045AQ  22139.91667824  .00047880  00000-0  34351-3 0  9994","NORAD_CAT_ID":"52369","SITE":"AFETR","OBJECT_ID":"2022-045AQ","ECCENTRICITY":"0.00010360","GP_ID":"203990510","INCLINATION":"53.2140","EPOCH":"2022-05-19T22:00:00.999936","FILE":"3453812","MEAN_MOTION":"15.73207758","MEAN_ELEMENT_THEORY":"SGP4","SEMIMAJOR_AXIS":"6727.873","RCS_SIZE":"LARGE","ELEMENT_SET_NO":"999","TIME_SYSTEM":"UTC","CENTER_NAME":"EARTH","COUNTRY_CODE":"US","OBJECT_TYPE":"PAYLOAD","MEAN_MOTION_DDOT":"0.0000000000000","APOAPSIS":"350.435","LAUNCH_DATE":"2022-04-29"},{"ARG_OF_PERICENTER":"90.7370","BSTAR":"0.00051954000000","REV_AT_EPOCH":"130","OBJECT_NAME":"STARLINK-3827","RA_OF_ASC_NODE":"337.1101","DECAY_DATE":null,"REF_FRAME":"TEME","CLASSIFICATION_TYPE":"U","PERIAPSIS":"349.028","SITE":"AFETR","NORAD_CAT_ID":"52370","TLE_LINE1":"1 52370U 22045AR  22139.91667824  .00072905  00000-0  51954-3 0  9990","TLE_LINE2":"2 52370  53.2138 337.1101 0001120  90.7370 346.5295 15.73192350  1301","OBJECT_ID":"2022-045AR","EPHEMERIS_TYPE":"0","PERIOD":"91.534","MEAN_ANOMALY":"346.5295","MEAN_MOTION_DOT":"0.00072905","CENTER_NAME":"EARTH","TIME_SYSTEM":"UTC","RCS_SIZE":"LARGE","ELEMENT_SET_NO":"999","FILE":"3453812","INCLINATION":"53.2138","EPOCH":"2022-05-19T22:00:00.999936","MEAN_ELEMENT_THEORY":"SGP4","SEMIMAJOR_AXIS":"6727.917","MEAN_MOTION":"15.73192350","GP_ID":"203991133","ECCENTRICITY":"0.00011200","LAUNCH_DATE":"2022-04-29","APOAPSIS":"350.536","MEAN_MOTION_DDOT":"0.0000000000000","COUNTRY_CODE":"US","OBJECT_TYPE":"PAYLOAD"}];
